     2              NAVIGATION DATA                         RINEX VERSION / TYPE
CCRINEXN V1.6.0 UX  CDDIS               14-SEP-20 04:42     PGM / RUN BY / DATE 
IGS BROADCAST EPHEMERIS FILE                                COMMENT             
    0.7451D-08  0.1490D-07 -0.5960D-07 -0.1192D-06          ION ALPHA           
    0.7987D+05  0.1638D+05 -0.1311D+06 -0.1311D+06          ION BETA            
    0.372529029846D-08 0.621724893790D-14   319488     2123 DELTA-UTC: A0,A1,T,W
    18                                                      LEAP SECONDS        
                                                            END OF HEADER       
30 20  9 14  4  0  0.0-0.301355030388D-03-0.716227077646D-11 0.000000000000D+00
    0.230000000000D+02 0.675000000000D+01 0.557130349572D-08 0.274659375203D+01
    0.419095158577D-06 0.478499662131D-02 0.521726906300D-05 0.515358500862D+04
    0.100800000000D+06-0.838190317154D-07-0.204650488839D+01-0.279396772385D-07
    0.937709986013D+00 0.269437500000D+03-0.280528993867D+01-0.843963725905D-08
   -0.214294640518D-10 0.100000000000D+01 0.212300000000D+04 0.000000000000D+00
    0.200000000000D+01 0.000000000000D+00 0.372529029846D-08 0.230000000000D+02
    0.100756000000D+06 0.400000000000D+01 0.000000000000D+00 0.000000000000D+00
31 20  9 14  4  0  0.0-0.685648992658D-04-0.238742359215D-11 0.000000000000D+00
    0.103000000000D+03 0.120625000000D+02 0.518235872318D-08 0.245752451598D+01
    0.689178705215D-06 0.965747726150D-02 0.534392893314D-05 0.515364451218D+04
    0.100800000000D+06-0.249594449997D-06-0.205150826571D+01 0.614672899246D-07
    0.956823139456D+00 0.276593750000D+03 0.157080931166D+00-0.823677166603D-08
    0.321441960777D-10 0.100000000000D+01 0.212300000000D+04 0.000000000000D+00
    0.200000000000D+01 0.000000000000D+00-0.130385160446D-07 0.103000000000D+03
    0.936180000000D+05 0.400000000000D+01 0.000000000000D+00 0.000000000000D+00
32 20  9 14  4  0  0.0 0.345989130437D-03 0.477484718431D-11 0.000000000000D+00
    0.730000000000D+02-0.275000000000D+01 0.457911931013D-08 0.515235563572D-01
   -0.800937414169D-07 0.411299394909D-02 0.106785446405D-04 0.515375716019D+04
    0.100800000000D+06 0.428408384323D-07-0.313207437460D+01 0.372529029846D-07
    0.957421486117D+00 0.175406250000D+03-0.245096834620D+01-0.795318842508D-08
    0.554665961207D-09 0.100000000000D+01 0.212300000000D+04 0.000000000000D+00
    0.280000000000D+01 0.000000000000D+00 0.465661287308D-09 0.730000000000D+02
    0.936180000000D+05 0.400000000000D+01 0.000000000000D+00 0.000000000000D+00
22 20  9 14  5 59 44.0-0.754610169679D-03 0.397903932026D-11 0.000000000000D+00
    0.520000000000D+02-0.123593750000D+03 0.500127975195D-08-0.565401866960D+00
   -0.635534524918D-05 0.675502221566D-02 0.698864459991D-05 0.515373858452D+04
    0.107984000000D+06-0.201165676117D-06 0.202139036807D+01-0.130385160446D-07
    0.931778656344D+00 0.231562500000D+03-0.109141762851D+01-0.842177937234D-08
   -0.129291099779D-09 0.100000000000D+01 0.212300000000D+04 0.000000000000D+00
    0.200000000000D+01 0.000000000000D+00-0.181607902050D-07 0.520000000000D+02
    0.100818000000D+06 0.400000000000D+01 0.000000000000D+00 0.000000000000D+00
28 20  9 14  5 59 44.0 0.678962096572D-03-0.409272615798D-11 0.000000000000D+00
    0.150000000000D+02 0.512500000000D+01 0.417874549009D-08 0.117616957111D+01
    0.372529029846D-07 0.184083225904D-01 0.100713223219D-04 0.515367063713D+04
    0.107984000000D+06-0.100582838059D-06-0.936947554072D+00-0.415369868278D-06
    0.976007882257D+00 0.198031250000D+03-0.139658554071D+01-0.791497254752D-08
   -0.426089176896D-09 0.100000000000D+01 0.212300000000D+04 0.000000000000D+00
    0.200000000000D+01 0.000000000000D+00-0.111758708954D-07 0.150000000000D+02
    0.107473000000D+06 0.400000000000D+01 0.000000000000D+00 0.000000000000D+00
32 20  9 14  5 59 44.0 0.346023123711D-03 0.477484718431D-11 0.000000000000D+00
    0.180000000000D+02-0.412500000000D+01 0.447268630534D-08 0.109922476148D+01
   -0.322237610817D-06 0.411318347324D-02 0.106003135443D-04 0.515375785446D+04
    0.107984000000D+06-0.931322574616D-08-0.313213128797D+01 0.596046447754D-07
    0.957425373090D+00 0.171250000000D+03-0.245087315997D+01-0.793104464556D-08
    0.535736601294D-09 0.100000000000D+01 0.212300000000D+04 0.000000000000D+00
    0.200000000000D+01 0.000000000000D+00 0.465661287308D-09 0.180000000000D+02
    0.100818000000D+06 0.400000000000D+01 0.000000000000D+00 0.000000000000D+00
 1 20  9 14  6  0  0.0 0.360412523150D-04-0.227373675443D-12 0.000000000000D+00
    0.680000000000D+02-0.790625000000D+01 0.420874673977D-08-0.175302113612D+01
   -0.325962901115D-06 0.100852258038D-01 0.140629708767D-05 0.515369997787D+04
    0.108000000000D+06 0.180676579475D-06 0.107157792119D+01-0.121071934700D-06
    0.981203393391D+00 0.363343750000D+03 0.826853221184D+00-0.810498046211D-08
    0.189293599124D-10 0.100000000000D+01 0.212300000000D+04 0.000000000000D+00
    0.200000000000D+01 0.000000000000D+00 0.512227416039D-08 0.680000000000D+02
    0.104976000000D+06 0.400000000000D+01 0.000000000000D+00 0.000000000000D+00
 2 20  9 14  6  0  0.0-0.516181811690D-03-0.522959453519D-11 0.000000000000D+00
    0.500000000000D+01 0.375000000000D+00 0.484698761077D-08-0.151985231714D+01
    0.379979610443D-06 0.198299682234D-01 0.148452818394D-05 0.515377399063D+04
    0.108000000000D+06 0.819563865662D-07 0.993021787755D+00 0.476837158203D-06
    0.960155383034D+00 0.352125000000D+03-0.160418464363D+01-0.851964059151D-08
   -0.732173355102D-10 0.100000000000D+01 0.212300000000D+04 0.000000000000D+00
    0.200000000000D+01 0.000000000000D+00-0.176951289177D-07 0.500000000000D+01
    0.100867000000D+06 0.400000000000D+01 0.000000000000D+00 0.000000000000D+00
 3 20  9 14  6  0  0.0-0.298569444567D-03-0.106865627458D-10 0.000000000000D+00
    0.920000000000D+02-0.121937500000D+03 0.409552773803D-08-0.290022360824D+01
   -0.624731183052D-05 0.323798670434D-02 0.820122659206D-05 0.515375468826D+04
    0.108000000000D+06-0.149011611938D-07 0.211176488563D+01 0.298023223877D-07
    0.966669436862D+00 0.224281250000D+03 0.862663110707D+00-0.784746973576D-08
   -0.122147945095D-09 0.100000000000D+01 0.212300000000D+04 0.000000000000D+00
    0.200000000000D+01 0.000000000000D+00 0.186264514923D-08 0.920000000000D+02
    0.100818000000D+06 0.400000000000D+01 0.000000000000D+00 0.000000000000D+00
 4 20  9 14  6  0  0.0-0.135714188218D-03-0.420641299570D-11 0.000000000000D+00
    0.660000000000D+02 0.718750000000D+01 0.434339520556D-08-0.302503577037D+00
    0.450760126114D-06 0.809053541161D-03 0.102594494820D-04 0.515363595772D+04
    0.108000000000D+06 0.186264514923D-07-0.309226019010D+01-0.353902578354D-07
    0.960579263548D+00 0.181062500000D+03-0.285174115428D+01-0.787497088129D-08
    0.576809740727D-09 0.100000000000D+01 0.212300000000D+04 0.000000000000D+00
    0.200000000000D+01 0.000000000000D+00-0.419095158577D-08 0.578000000000D+03
    0.100818000000D+06 0.400000000000D+01 0.000000000000D+00 0.000000000000D+00
 5 20  9 14  6  0  0.0-0.210572034121D-04-0.909494701773D-12 0.000000000000D+00
    0.140000000000D+03-0.118218750000D+03 0.449090134978D-08 0.115168853236D+01
   -0.606477260590D-05 0.612216303125D-02 0.865198671818D-05 0.515373740196D+04
    0.108000000000D+06-0.838190317154D-07 0.207836959506D+01-0.428408384323D-07
    0.953562142914D+00 0.212656250000D+03 0.867193991825D+00-0.813391023858D-08
   -0.256082095419D-09 0.100000000000D+01 0.212300000000D+04 0.000000000000D+00
    0.200000000000D+01 0.000000000000D+00-0.111758708954D-07 0.140000000000D+03
    0.103909000000D+06 0.400000000000D+01 0.000000000000D+00 0.000000000000D+00
 6 20  9 14  6  0  0.0-0.325472559780D-03-0.329691829393D-11 0.000000000000D+00
    0.430000000000D+02-0.140312500000D+02 0.435768151493D-08-0.140083002050D+01
   -0.728294253349D-06 0.178902805783D-02 0.162050127983D-05 0.515361134529D+04
    0.108000000000D+06-0.111758708954D-07 0.106332516728D+01-0.372529029846D-08
    0.980737560776D+00 0.359062500000D+03-0.112049983866D+01-0.830141721592D-08
   -0.546451333320D-10 0.100000000000D+01 0.212300000000D+04 0.000000000000D+00
    0.200000000000D+01 0.000000000000D+00 0.419095158577D-08 0.430000000000D+02
    0.100875000000D+06 0.400000000000D+01 0.000000000000D+00 0.000000000000D+00
 7 20  9 14  6  0  0.0-0.372102018446D-03-0.818545231596D-11 0.000000000000D+00
    0.430000000000D+02 0.809375000000D+01 0.518021577678D-08-0.244974848757D+01
    0.132247805595D-06 0.142204577569D-01 0.504404306412D-05 0.515363557243D+04
    0.108000000000D+06 0.229105353355D-06-0.206758400185D+01-0.197440385819D-06
    0.952437510011D+00 0.277593750000D+03-0.236538247593D+01-0.823498587736D-08
    0.166435504135D-09 0.100000000000D+01 0.212300000000D+04 0.000000000000D+00
    0.200000000000D+01 0.000000000000D+00-0.111758708954D-07 0.430000000000D+02
    0.105966000000D+06 0.400000000000D+01 0.000000000000D+00 0.000000000000D+00
 8 20  9 14  6  0  0.0-0.479049049318D-04-0.136424205266D-11 0.000000000000D+00
    0.410000000000D+02 0.956562500000D+02 0.429839333105D-08 0.557597918763D+00
    0.499002635479D-05 0.546095275786D-02 0.844523310661D-05 0.515372318649D+04
    0.108000000000D+06 0.353902578354D-07 0.674605654319D-03-0.931322574616D-08
    0.969451029298D+00 0.216375000000D+03-0.660763581970D-01-0.802140555231D-08
    0.289297764699D-10 0.100000000000D+01 0.212300000000D+04 0.000000000000D+00
    0.200000000000D+01 0.000000000000D+00 0.512227416039D-08 0.410000000000D+02
    0.100818000000D+06 0.400000000000D+01 0.000000000000D+00 0.000000000000D+00
